{
  "type": "FeatureCollection",
  "name": "ct_water_districts",
  "features": [
    {
      "type": "Feature",
      "properties": {
        "STATEFP10": "09",
        "COUNTYFP10": "001",
        "COUSUBFP10": "00000",
        "COUSUBNS10": "00000000",
        "GEOID10": "0900100000",
        "NAME10": "Water_1",
        "NAMELSAD10": "County subdivisions not defined",
        "LSAD10": "00",
        "CLASSFP10": "Z9",
        "MTFCC10": "G4040",
        "CNECTAFP10": null,
        "NECTAFP10": null,
        "NCTADVFP10": null,
        "FUNCSTAT10": "F",
        "ALAND10": 0,
        "AWATER10": 302060009,
        "Town": "Water_1",
        "municipality": "Water_1",
        "POP_Total": 0,
        "VR_R_20": 0,
        "VR_D_20": 0,
        "VOTE_Gov_R_18": 0,
        "VOTE_Gov_D_18": 0,
        "VAP_White_20": 0,
        "VAP_NonWhite_20": 0,
        "unit_type": "water"
      },
      "geometry": {
        "type": "Polygon",
        "coordinates": [
          [
            [
              -72.99954799736324,
              41.087116346301656
            ],
            [
              -73.01952900355462,
              41.0822213446988
            ],
            [
              -73.0652010177032,
              41.07103334103314
            ],
            [
              -73.10495803001528,
              41.061293337839686
            ],
            [
              -73.14159504135779,
              41.052317334894845
            ],
            [
              -73.18347705432045,
              41.04206033152694
            ],
            [
              -73.22910506842229,
              41.030612327801315
            ],
            [
              -73.23179806926319,
              41.0300913276117
            ],
            [
              -73.23821407124686,
              41.028502327091644
            ],
            [
              -73.24955807476415,
              41.02587432620767
            ],
            [
              -73.27539308284348,
              41.021128324437264
            ],
            [
              -73.31219009430966,
              41.0136833217795
            ],
            [
              -73.35896810888178,
              41.00422231839886
            ],
            [
              -73.37456111373818,
              41.00106831727125
            ],
            [
              -73.37817311484983,
              41.00010531696435
            ],
            [
              -73.38958911841306,
              40.997940316166854
            ],
            [
              -73.42345312894041,
              40.99080131365934
            ],
            [
              -73.45646113919923,
              40.98384431121403
            ],
            [
              -73.45646014128512,
              41.020457318405455
            ],
            [
              -73.44119213636239,
              41.020575318928
            ],
            [
              -73.39028211994565,
              41.02096932066799
            ],
            [
              -73.38380111829738,
              41.02879032241514
            ],
            [
              -73.36846211439611,
              41.047305326550024
            ],
            [
              -73.36136211370204,
              41.075404332294646
            ],
            [
              -73.33631310569876,
              41.07700333342501
            ],
            [
              -73.29556009267588,
              41.07960533526227
            ],
            [
              -73.29771009588676,
              41.12383134386315
            ],
            [
              -73.29006509342736,
              41.12405034415501
            ],
            [
              -73.26985208647326,
              41.11669834337189
            ],
            [
              -73.26425908454004,
              41.11450434312372
            ],
            [
              -73.24165907796478,
              41.12740434638661
            ],
            [
              -73.23608607671554,
              41.137138348475084
            ],
            [
              -73.23263607590613,
              41.14253034964358
            ],
            [
              -73.2210580720118,
              41.13990434950512
            ],
            [
              -73.17985605940345,
              41.15260535333019
            ],
            [
              -73.16575605493753,
              41.15430535412018
            ],
            [
              -73.13052404308246,
              41.14628835368975
            ],
            [
              -73.09535303171798,
              41.14660535488838
            ],
            [
              -73.10745303686737,
              41.16840535876901
            ],
            [
              -73.09331403169558,
              41.1578853571648
            ],
            [
              -73.05777201871116,
              41.13166035317048
            ],
            [
              -73.04888701546614,
              41.12510535217108
            ],
            [
              -73.0215480054339,
              41.104056348920686
            ],
            [
              -72.99954799736324,
              41.087116346301656
            ]
          ]
        ]
      }
    },
    {
      "type": "Feature",
      "properties": {
        "STATEFP10": "09",
        "COUNTYFP10": "009",
        "COUSUBFP10": "00000",
        "COUSUBNS10": "00000000",
        "GEOID10": "0900900000",
        "NAME10": "Water_2",
        "NAMELSAD10": "County subdivisions not defined",
        "LSAD10": "00",
        "CLASSFP10": "Z9",
        "MTFCC10": "G4040",
        "CNECTAFP10": null,
        "NECTAFP10": null,
        "NCTADVFP10": null,
        "FUNCSTAT10": "F",
        "ALAND10": 0,
        "AWATER10": 599101173,
        "Town": "Water_2",
        "municipality": "Water_2",
        "POP_Total": 0,
        "VR_R_20": 0,
        "VR_D_20": 0,
        "VOTE_Gov_R_18": 0,
        "VOTE_Gov_D_18": 0,
        "VAP_White_20": 0,
        "VAP_NonWhite_20": 0,
        "unit_type": "water"
      },
      "geometry": {
        "type": "Polygon",
        "coordinates": [
          [
            [
              -72.89972297400905,
              41.24690538082594
            ],
            [
              -72.9004089742085,
              41.246498380724304
            ],
            [
              -72.90508197530836,
              41.23912937913246
            ],
            [
              -72.86204096136301,
              41.239257380536785
            ],
            [
              -72.86029696107362,
              41.24416938155399
            ],
            [
              -72.85644095984861,
              41.2446173817651
            ],
            [
              -72.85352895894404,
              41.24532138199607
            ],
            [
              -72.85168895837977,
              41.24589638216751
            ],
            [
              -72.85013695793768,
              41.24698438243009
            ],
            [
              -72.84871295754877,
              41.2482803827293
            ],
            [
              -72.84808895741028,
              41.249416382971546
            ],
            [
              -72.84778495738722,
              41.25076038324429
            ],
            [
              -72.84812095760675,
              41.25272838361863
            ],
            [
              -72.84804095764915,
              41.25394438385912
            ],
            [
              -72.84717695742562,
              41.25495238408401
            ],
            [
              -72.84564095692488,
              41.254904384123755
            ],
            [
              -72.84340095610685,
              41.25327238387613
            ],
            [
              -72.84228095567268,
              41.25200838366462
            ],
            [
              -72.84120795523665,
              41.2504403833921
            ],
            [
              -72.83960795460463,
              41.24842438304878
            ],
            [
              -72.8385519542209,
              41.247688382938506
            ],
            [
              -72.83655195354007,
              41.24711238288975
            ],
            [
              -72.83530395313899,
              41.24717638294218
            ],
            [
              -72.8344399528795,
              41.24754438304184
            ],
            [
              -72.83343195259665,
              41.248328383227495
            ],
            [
              -72.82917595144384,
              41.252376384155774
            ],
            [
              -72.82655195078607,
              41.255816384912805
            ],
            [
              -72.8272239507489,
              41.25127238400214
            ],
            [
              -72.82610395031836,
              41.250072383803115
            ],
            [
              -72.82507994987317,
              41.24805638344131
            ],
            [
              -72.82453594965635,
              41.24733638331777
            ],
            [
              -72.82459994964387,
              41.246744383199875
            ],
            [
              -72.81626394654687,
              41.23972038209134
            ],
            [
              -72.81098394486348,
              41.24023238236024
            ],
            [
              -72.80651994347335,
              41.241256382703256
            ],
            [
              -72.80210294211992,
              41.24266438311991
            ],
            [
              -72.79752694073818,
              41.24448838362305
            ],
            [
              -72.79301493938792,
              41.24650438416171
            ],
            [
              -72.78983093846648,
              41.24848838465167
            ],
            [
              -72.78711093772239,
              41.25095238522076
            ],
            [
              -72.78559093734594,
              41.25303238567636
            ],
            [
              -72.78421493703233,
              41.25540038618374
            ],
            [
              -72.7816389361592,
              41.25472838613441
            ],
            [
              -72.77978293555094,
              41.254616386171705
            ],
            [
              -72.77520693402283,
              41.25383238616423
            ],
            [
              -72.77378293356095,
              41.25383238620965
            ],
            [
              -72.76880593196458,
              41.25415238643099
            ],
            [
              -72.76746193150716,
              41.253768386398676
            ],
            [
              -72.766389931086,
              41.25245638617607
            ],
            [
              -72.76424592997245,
              41.2449843847817
            ],
            [
              -72.76307792941729,
              41.24183238420182
            ],
            [
              -72.76218192906764,
              41.2407763840236
            ],
            [
              -72.76094992862691,
              41.240040383918746
            ],
            [
              -72.75942992811783,
              41.23975238391079
            ],
            [
              -72.73963792214461,
              41.24773638610436
            ],
            [
              -72.73524192096275,
              41.25210438709945
            ],
            [
              -72.73462192072681,
              41.25148138699722
            ],
            [
              -72.73429292057804,
              41.25072938686048
            ],
            [
              -72.73290792008015,
              41.249859386734244
            ],
            [
              -72.72810991846887,
              41.24887738669468
            ],
            [
              -72.72535591754078,
              41.24825638666072
            ],
            [
              -72.72367491695316,
              41.24749838656579
            ],
            [
              -72.722965916694,
              41.246976386486125
            ],
            [
              -72.70910091205883,
              41.24451538644516
            ],
            [
              -72.70843091182411,
              41.244204386405556
            ],
            [
              -72.70742791150643,
              41.24434238646447
            ],
            [
              -72.70669291130459,
              41.24499838661629
            ],
            [
              -72.70593691100322,
              41.2439923864433
            ],
            [
              -72.70512991076068,
              41.24433738653653
            ],
            [
              -72.70454091055737,
              41.24411838651236
            ],
            [
              -72.69700390821093,
              41.245887387098264
            ],
            [
              -72.69497090748467,
              41.24469138692865
            ],
            [
              -72.6935359070538,
              41.24531338709604
            ],
            [
              -72.6930399069482,
              41.24630538730607
            ],
            [
              -72.69223990673886,
              41.24720538750771
            ],
            [
              -72.69103990636069,
              41.247405387585
            ],
            [
              -72.6903909061224,
              41.24690838750829
            ],
            [
              -72.6895249058725,
              41.24746538764487
            ],
            [
              -72.68787290545826,
              41.249648388124804
            ],
            [
              -72.68626690499964,
              41.25076838839512
            ],
            [
              -72.68573190486536,
              41.25147338855015
            ],
            [
              -72.68560190486873,
              41.25229038871426
            ],
            [
              -72.68509990476788,
              41.25340238894793
            ],
            [
              -72.68496990481472,
              41.25499838926456
            ],
            [
              -72.68452890467987,
              41.25514638930752
            ],
            [
              -72.68182490350746,
              41.2498543883572
            ],
            [
              -72.6809169031075,
              41.24796438801592
            ],
            [
              -72.67864690217874,
              41.24451438741237
            ],
            [
              -72.67831690211625,
              41.24531438757952
            ],
            [
              -72.67822190233727,
              41.24983338846748
            ],
            [
              -72.67734190207862,
              41.250315388589826
            ],
            [
              -72.67201590020834,
              41.24776338825911
            ],
            [
              -72.67143990001787,
              41.24769938826486
            ],
            [
              -72.67051189974096,
              41.248133388379294
            ],
            [
              -72.66788889900866,
              41.250265388880045
            ],
            [
              -72.66731289887713,
              41.25125938909296
            ],
            [
              -72.66685189920088,
              41.25975339077072
            ],
            [
              -72.6721479011799,
              41.26442539151723
            ],
            [
              -72.67468790207609,
              41.26571539168909
            ],
            [
              -72.67471290212248,
              41.26640139182258
            ],
            [
              -72.67310490163902,
              41.267089392008316
            ],
            [
              -72.67232590139265,
              41.267204392055554
            ],
            [
              -72.6707329008611,
              41.26694239205484
            ],
            [
              -72.67053690077593,
              41.266555391985314
            ],
            [
              -72.66927190031025,
              41.26556639183189
            ],
            [
              -72.66852890010621,
              41.26623139198565
            ],
            [
              -72.6682159000864,
              41.267697392282535
            ],
            [
              -72.66732089981834,
              41.26809839238944
            ],
            [
              -72.66560389938167,
              41.27026039286712
            ],
            [
              -72.66493289917696,
              41.27049439293422
            ],
            [
              -72.6635668987065,
              41.270007392882256
            ],
            [
              -72.6624458983048,
              41.26932739278474
            ],
            [
              -72.66179189803857,
              41.26835939261603
            ],
            [
              -72.66078889768609,
              41.26787539255311
            ],
            [
              -72.66060689760145,
              41.267416392469045
            ],
            [
              -72.65954489721544,
              41.2666743923575
            ],
            [
              -72.65948689716396,
              41.266088392244626
            ],
            [
              -72.65850589679626,
              41.265203392102514
            ],
            [
              -72.6569568963079,
              41.26546039220196
            ],
            [
              -72.65552889589128,
              41.266300392411715
            ],
            [
              -72.65450789552679,
              41.265705392327625
            ],
            [
              -72.65360889525721,
              41.266103392434054
            ],
            [
              -72.65097589441275,
              41.26628339255281
            ],
            [
              -72.65020589411812,
              41.26548039242003
            ],
            [
              -72.64956589390161,
              41.26532239240941
            ],
            [
              -72.64691789307138,
              41.265845392595764
            ],
            [
              -72.64378989210228,
              41.266672392856854
            ],
            [
              -72.64124889130281,
              41.2671253930261
            ],
            [
              -72.63857289043298,
              41.26710139310623
            ],
            [
              -72.63769289016899,
              41.26748939321009
            ],
            [
              -72.63590288957644,
              41.26728139322611
            ],
            [
              -72.63315288872639,
              41.26804439346264
            ],
            [
              -72.63211288837937,
              41.267874393462314
            ],
            [
              -72.63177088832288,
              41.26885339366482
            ],
            [
              -72.630415887951,
              41.27007339394658
            ],
            [
              -72.6296148877076,
              41.27037139403029
            ],
            [
              -72.62767288709838,
              41.27075039416603
            ],
            [
              -72.62613088659587,
              41.270714394207836
            ],
            [
              -72.62578788650622,
              41.27110339429486
            ],
            [
              -72.62401088595526,
              41.27156739444197
            ],
            [
              -72.62171188521977,
              41.2717603945526
            ],
            [
              -72.62113688501817,
              41.27149139451815
            ],
            [
              -72.6205548848543,
              41.27194139462468
            ],
            [
              -72.61926788443932,
              41.271991394675254
            ],
            [
              -72.61763788390084,
              41.271822394693785
            ],
            [
              -72.61643088353014,
              41.27220139480621
            ],
            [
              -72.61508488308874,
              41.27212039483298
            ],
            [
              -72.6103768814901,
              41.27085439473421
            ],
            [
              -72.60895788099597,
              41.270251394661116
            ],
            [
              -72.60804888069417,
              41.2701303946662
            ],
            [
              -72.60772888061415,
              41.2705593947603
            ],
            [
              -72.60529187985546,
              41.271141394951385
            ],
            [
              -72.60425887951715,
              41.27108739497352
            ],
            [
              -72.60227287884656,
              41.270621394945145
            ],
            [
              -72.60073687828847,
              41.26955139478428
            ],
            [
              -72.5997478779467,
              41.269178394742546
            ],
            [
              -72.5981978774311,
              41.26895439474774
            ],
            [
              -72.59674387698965,
              41.26950339490122
            ],
            [
              -72.59501987645474,
              41.26994839504289
            ],
            [
              -72.59194987547377,
              41.27022939519502
            ],
            [
              -72.58992787481252,
              41.27014139524176
            ],
            [
              -72.58970987476646,
              41.27058639533578
            ],
            [
              -72.58880787449077,
              41.27089439542461
            ],
            [
              -72.58762887409858,
              41.27072439542861
            ],
            [
              -72.58622487366782,
              41.271174395561125
            ],
            [
              -72.58530187336852,
              41.271180395591486
            ],
            [
              -72.58538187342981,
              41.27181639571348
            ],
            [
              -72.5828208726088,
              41.27200339583107
            ],
            [
              -72.58128587208732,
              41.27158639579797
            ],
            [
              -72.57889287130291,
              41.271450395847
            ],
            [
              -72.57510186999785,
              41.27011139570467
            ],
            [
              -72.5725118690824,
              41.268767395523355
            ],
            [
              -72.5684678676623,
              41.26683539527285
            ],
            [
              -72.56430686615707,
              41.26405239485931
            ],
            [
              -72.56313586572426,
              41.26310339471044
            ],
            [
              -72.55930986433789,
              41.260501394321665
            ],
            [
              -72.55761486371553,
              41.25920139412056
            ],
            [
              -72.55315686208937,
              41.25597339362901
            ],
            [
              -72.54985586085927,
              41.25311339317293
            ],
            [
              -72.54697685980274,
              41.25091239283259
            ],
            [
              -72.54597285939666,
              41.249465392580774
            ],
            [
              -72.54567585930839,
              41.249612392618936
            ],
            [
              -72.54445985886159,
              41.248672392473125
            ],
            [
              -72.54350285856022,
              41.24884039253624
            ],
            [
              -72.54191685810612,
              41.249937392801186
            ],
            [
              -72.54008285753035,
              41.250291392928396
            ],
            [
              -72.53839585698324,
              41.25030139298355
            ],
            [
              -72.53664985648786,
              41.25159139329137
            ],
            [
              -72.53652585650624,
              41.25265039350275
            ],
            [
              -72.53700485674321,
              41.25412139377582
            ],
            [
              -72.53594285642494,
              41.25460039390316
            ],
            [
              -72.52790285356694,
              41.25012339327952
            ],
            [
              -72.52790185176838,
              41.21760138690478
            ],
            [
              -72.52790184957105,
              41.177782379092555
            ],
            [
              -72.57522586442326,
              41.16871137582133
            ],
            [
              -72.6235628795884,
              41.15944537247672
            ],
            [
              -72.65618188981944,
              41.15319337021807
            ],
            [
              -72.68229289800755,
              41.14818836840891
            ],
            [
              -72.72759691221044,
              41.13949636526613
            ],
            [
              -72.74939391904222,
              41.13531336375284
            ],
            [
              -72.78589793048504,
              41.12837536123029
            ],
            [
              -72.80311593588145,
              41.1251053600403
            ],
            [
              -72.84234594816678,
              41.1175173573005
            ],
            [
              -72.87882295958708,
              41.11046335475138
            ],
            [
              -72.92408097375255,
              41.101711351586125
            ],
            [
              -72.96549998671243,
              41.093700348686625
            ],
            [
              -72.99954799736324,
              41.087116346301656
            ],
            [
              -73.0215480054339,
              41.104056348920686
            ],
            [
              -73.04888701546614,
              41.12510535217108
            ],
            [
              -73.05777201871116,
              41.13166035317048
            ],
            [
              -73.09331403169558,
              41.1578853571648
            ],
            [
              -73.10745303686737,
              41.16840535876901
            ],
            [
              -73.10778003698499,
              41.168613358799185
            ],
            [
              -73.10506903634793,
              41.17286135971888
            ],
            [
              -73.1033030358285,
              41.17378435995673
            ],
            [
              -73.10256303560232,
              41.174020360026866
            ],
            [
              -73.10098603508999,
              41.17398836007158
            ],
            [
              -73.10020903489473,
              41.17498236029138
            ],
            [
              -73.0989600345529,
              41.17608636054796
            ],
            [
              -73.0980600343237,
              41.17718436079207
            ],
            [
              -73.09678903396693,
              41.17815036102234
            ],
            [
              -73.09522703357628,
              41.18018236147077
            ],
            [
              -73.09468303340854,
              41.18033036151731
            ],
            [
              -73.09360003313004,
              41.1816043618018
            ],
            [
              -73.09288103292371,
              41.1820713619165
            ],
            [
              -73.09209003274654,
              41.183465362215024
            ],
            [
              -73.09134203253303,
              41.18397136233829
            ],
            [
              -73.09042703231633,
              41.18537636264296
            ],
            [
              -73.08898103192867,
              41.18679836296812
            ],
            [
              -73.08821803173826,
              41.18779836318859
            ],
            [
              -73.0869690313808,
              41.188627363391255
            ],
            [
              -73.08426603064242,
              41.19104336395163
            ],
            [
              -73.08245703013748,
              41.192470364289456
            ],
            [
              -73.07871502905422,
              41.194738364854366
            ],
            [
              -73.07716002858893,
              41.19541336503674
            ],
            [
              -73.07364702751713,
              41.19657436537749
            ],
            [
              -73.06695202507935,
              41.19180536465998
            ],
            [
              -73.05785102177045,
              41.18540536370043
            ],
            [
              -73.03755001574463,
              41.19510536625466
            ],
            [
              -73.05044402048459,
              41.20508236779203
            ],
            [
              -73.05549602233617,
              41.20888936837416
            ],
            [
              -73.05474502211446,
              41.209269368472775
            ],
            [
              -73.05230202137106,
              41.21011436871701
            ],
            [
              -73.04973602056947,
              41.21063536890179
            ],
            [
              -73.04810002000667,
              41.21005336884068
            ],
            [
              -73.04605101933025,
              41.209827368862555
            ],
            [
              -73.04533101907782,
              41.20948736881923
            ],
            [
              -73.04281001810071,
              41.20664836834487
            ],
            [
              -73.04115301748054,
              41.2051713681092
            ],
            [
              -73.03966401689463,
              41.20333836779838
            ],
            [
              -73.03906001667848,
              41.20297536774682
            ],
            [
              -73.03839901641007,
              41.20201436758
            ],
            [
              -73.03746201611006,
              41.20207536762215
            ],
            [
              -73.03768701624652,
              41.20320036783513
            ],
            [
              -73.03737401618491,
              41.203903367982846
            ],
            [
              -73.03594901579625,
              41.205192368281146
            ],
            [
              -73.03467401542797,
              41.205982368476896
            ],
            [
              -73.0325900147986,
              41.20678936870207
            ],
            [
              -73.03149901446135,
              41.20707436879302
            ],
            [
              -73.02939901378109,
              41.207073368860534
            ],
            [
              -73.02807501337922,
              41.207550368996586
            ],
            [
              -73.02698501302893,
              41.207599369041326
            ],
            [
              -73.0230240117307,
              41.20732936911614
            ],
            [
              -73.02174501130025,
              41.20704336910136
            ],
            [
              -73.02044401084997,
              41.206532369043245
            ],
            [
              -73.02017601069215,
              41.205275368805815
            ],
            [
              -73.02025601066411,
              41.20432036861629
            ],
            [
              -73.01970401047538,
              41.204144368599614
            ],
            [
              -73.01537200909009,
              41.20446036880105
            ],
            [
              -73.01392500865703,
              41.20509136897119
            ],
            [
              -73.01312500844035,
              41.20584336914418
            ],
            [
              -73.011444008013,
              41.20791736960435
            ],
            [
              -73.00940700745477,
              41.209716370022136
            ],
            [
              -73.00806900704951,
              41.21021537016291
            ],
            [
              -73.00688800689825,
              41.21431037100254
            ],
            [
              -73.00631100677772,
              41.21548537125112
            ],
            [
              -73.00631500680743,
              41.215988371349425
            ],
            [
              -72.99599700331407,
              41.21331837115908
            ],
            [
              -72.98434799985553,
              41.218905372627624
            ],
            [
              -72.97904799878755,
              41.23040537504878
            ],
            [
              -72.9867220015581,
              41.235433375785554
            ],
            [
              -72.98608900136627,
              41.235668375851915
            ],
            [
              -72.9842420007651,
              41.23562037590199
            ],
            [
              -72.98354300051814,
              41.235258375853675
            ],
            [
              -72.98222700008552,
              41.23514837587452
            ],
            [
              -72.98149199980982,
              41.23448437576826
            ],
            [
              -72.9796919992267,
              41.23448637582658
            ],
            [
              -72.9793179990719,
              41.23389137572221
            ],
            [
              -72.97800499860871,
              41.233223375633756
            ],
            [
              -72.97550299781436,
              41.23351337577102
            ],
            [
              -72.9730289971433,
              41.235826376303194
            ],
            [
              -72.9718369968333,
              41.237177376605885
            ],
            [
              -72.97148099679825,
              41.238599376895536
            ],
            [
              -72.97043499656935,
              41.240548377310496
            ],
            [
              -72.97043499663137,
              41.2416463775253
            ],
            [
              -72.96880699622189,
              41.243737377986726
            ],
            [
              -72.96663999561733,
              41.245467378394885
            ],
            [
              -72.96429199493917,
              41.24693337875719
            ],
            [
              -72.96288099455695,
              41.248262379062545
            ],
            [
              -72.96290899467024,
              41.25010737942253
            ],
            [
              -72.9620059944527,
              41.25143737971172
            ],
            [
              -72.96036799396701,
              41.25223737992089
            ],
            [
              -72.95820799327193,
              41.25232538000758
            ],
            [
              -72.95696399283237,
              41.25168137992164
            ],
            [
              -72.95638899267315,
              41.25216238003421
            ],
            [
              -72.9570879929327,
              41.25274638012595
            ],
            [
              -72.95622299270718,
              41.25371738034369
            ],
            [
              -72.95386699199744,
              41.25467138060604
            ],
            [
              -72.9535979919354,
              41.25511638070173
            ],
            [
              -72.94891299047241,
              41.256100381044845
            ],
            [
              -72.94805499022121,
              41.25657638116553
            ],
            [
              -72.94664398978786,
              41.25700138129403
            ],
            [
              -72.94464398915969,
              41.25735738142795
            ],
            [
              -72.941849988271,
              41.25765838157665
            ],
            [
              -72.94194498831898,
              41.25796238163305
            ],
            [
              -72.94045398786339,
              41.258453381776995
            ],
            [
              -72.93708598681704,
              41.2592573820425
            ],
            [
              -72.9359579864597,
              41.259404382107505
            ],
            [
              -72.93296098553142,
              41.26017038235363
            ],
            [
              -72.9324949853956,
              41.26044038242139
            ],
            [
              -72.9308949849836,
              41.26233038284244
            ],
            [
              -72.92889498440063,
              41.26348838313318
            ],
            [
              -72.9275849840425,
              41.2646673834058
            ],
            [
              -72.92671098389096,
              41.26700238389049
            ],
            [
              -72.92834898436055,
              41.26591438362511
            ],
            [
              -72.92834898432115,
              41.265216383488635
            ],
            [
              -72.92894598448737,
              41.264732383374785
            ],
            [
              -72.92906898449327,
              41.26413038325312
            ],
            [
              -72.93031298488233,
              41.26387838316385
            ],
            [
              -72.9307499849751,
              41.26301238298046
            ],
            [
              -72.93128098515362,
              41.26312538298551
            ],
            [
              -72.93084398512106,
              41.265058383377536
            ],
            [
              -72.92986898487189,
              41.26624338364059
            ],
            [
              -72.92871998454501,
              41.26705138383551
            ],
            [
              -72.92686398398978,
              41.267874384056086
            ],
            [
              -72.92416498315272,
              41.2685463842742
            ],
            [
              -72.92249898261542,
              41.26859638433751
            ],
            [
              -72.92269698270638,
              41.269070384423834
            ],
            [
              -72.92421798318959,
              41.268895384340745
            ],
            [
              -72.92644598387871,
              41.26830738415419
            ],
            [
              -72.92988698490916,
              41.26680038374893
            ],
            [
              -72.93093998526582,
              41.26707138376808
            ],
            [
              -72.93057398519453,
              41.26791038394391
            ],
            [
              -72.93124498546422,
              41.268834384103
            ],
            [
              -72.93286998604248,
              41.26974538422889
            ],
            [
              -72.93436498658943,
              41.270848384396494
            ],
            [
              -72.93572298711173,
              41.272301384636904
            ],
            [
              -72.93622698731716,
              41.27304538476616
            ],
            [
              -72.93647498745736,
              41.27410438496523
            ],
            [
              -72.93639498747459,
              41.27486838511715
            ],
            [
              -72.93684498766494,
              41.27565538525654
            ],
            [
              -72.93691898777018,
              41.27709338553526
            ],
            [
              -72.93806098820824,
              41.278293385733114
            ],
            [
              -72.93848898841739,
              41.27953938596291
            ],
            [
              -72.93846498849317,
              41.28101738625257
            ],
            [
              -72.93818698844119,
              41.281692386393445
            ],
            [
              -72.93762398827306,
              41.281947386461404
            ],
            [
              -72.93683798799958,
              41.28161738642218
            ],
            [
              -72.93450998726233,
              41.281927386557626
            ],
            [
              -72.93308398679852,
              41.281901386598406
            ],
            [
              -72.93272698666262,
              41.28154438654009
            ],
            [
              -72.93298198666865,
              41.28018838626684
            ],
            [
              -72.93096598603007,
              41.28045438638366
            ],
            [
              -72.92993998566229,
              41.27983238629506
            ],
            [
              -72.92916898544202,
              41.28035838642267
            ],
            [
              -72.92962698563758,
              41.28119138657076
            ],
            [
              -72.9284919852997,
              41.28172438671143
            ],
            [
              -72.9263959846964,
              41.28307438704269
            ],
            [
              -72.92121998293972,
              41.28168538693754
            ],
            [
              -72.91534698105355,
              41.2820053871888
            ],
            [
              -72.90595597804821,
              41.28270838762786
            ],
            [
              -72.90506797768082,
              41.28130038738114
            ],
            [
              -72.90484997756695,
              41.280535387238594
            ],
            [
              -72.90369497706777,
              41.27832538684363
            ],
            [
              -72.90338897690394,
              41.27718038662961
            ],
            [
              -72.90396397705872,
              41.27661938650147
            ],
            [
              -72.90315797672541,
              41.27534338627787
            ],
            [
              -72.90310697665451,
              41.27437938609102
            ],
            [
              -72.9041999769244,
              41.272881385763036
            ],
            [
              -72.90428697691634,
              41.27223838563452
            ],
            [
              -72.90512497715162,
              41.271592385481306
            ],
            [
              -72.90570597726919,
              41.27033738521726
            ],
            [
              -72.90421597675662,
              41.269814385162825
            ],
            [
              -72.90213497602345,
              41.26877738502683
            ],
            [
              -72.89944397505194,
              41.267021384769805
            ],
            [
              -72.89903797487622,
              41.266239384629905
            ],
            [
              -72.89743097428244,
              41.26494838442898
            ],
            [
              -72.89603497375433,
              41.26360838421172
            ],
            [
              -72.89460997319337,
              41.261852383913975
            ],
            [
              -72.89367197278857,
              41.260065383594544
            ],
            [
              -72.89343297261645,
              41.258385383273584
            ],
            [
              -72.89396597270459,
              41.25688238296248
            ],
            [
              -72.89485297295528,
              41.25622738280591
            ],
            [
              -72.89582797326354,
              41.25608838274744
            ],
            [
              -72.8971379736609,
              41.255603382610545
            ],
            [
              -72.89895597422449,
              41.25514538246262
            ],
            [
              -72.8995529743902,
              41.25465138234685
            ],
            [
              -72.90042597466348,
              41.254478382284994
            ],
            [
              -72.90185197506509,
              41.25340138202855
            ],
            [
              -72.90278297534375,
              41.252990381918266
            ],
            [
              -72.90290797533137,
              41.25205138173057
            ],
            [
              -72.90359197552719,
              41.251591381618624
            ],
            [
              -72.90388397558483,
              41.25093438148073
            ],
            [
              -72.90409997555015,
              41.2490753811101
            ],
            [
              -72.90390397542414,
              41.247966380899406
            ],
            [
              -72.90068297429863,
              41.246521380720026
            ],
            [
              -72.89987497406361,
              41.24699938083947
            ],
            [
              -72.89972297400905,
              41.24690538082594
            ]
          ],
          [
            [
              -72.60250387870579,
              41.266740394178
            ],
            [
              -72.602429878647,
              41.26611539405798
            ],
            [
              -72.60144087830463,
              41.26573139401407
            ],
            [
              -72.6009168781434,
              41.265890394061785
            ],
            [
              -72.60171087844842,
              41.26674139420329
            ],
            [
              -72.60250387870579,
              41.266740394178
            ]
          ]
        ]
      }
    },
    {
      "type": "Feature",
      "properties": {
        "STATEFP10": "09",
        "COUNTYFP10": "007",
        "COUSUBFP10": "00000",
        "COUSUBNS10": "00000000",
        "GEOID10": "0900700000",
        "NAME10": "Water_3",
        "NAMELSAD10": "County subdivisions not defined",
        "LSAD10": "00",
        "CLASSFP10": "Z9",
        "MTFCC10": "G4040",
        "CNECTAFP10": null,
        "NECTAFP10": null,
        "NCTADVFP10": null,
        "FUNCSTAT10": "F",
        "ALAND10": 0,
        "AWATER10": 106907065,
        "Town": "Water_3",
        "municipality": "Water_3",
        "POP_Total": 0,
        "VR_R_20": 0,
        "VR_D_20": 0,
        "VOTE_Gov_R_18": 0,
        "VOTE_Gov_D_18": 0,
        "VAP_White_20": 0,
        "VAP_NonWhite_20": 0,
        "unit_type": "water"
      },
      "geometry": {
        "type": "Polygon",
        "coordinates": [
          [
            [
              -72.48339483979187,
              41.26235239707712
            ],
            [
              -72.48704984030462,
              41.25015139457153
            ],
            [
              -72.46683283373751,
              41.25010739519864
            ],
            [
              -72.45683283049021,
              41.250107395512856
            ],
            [
              -72.42822782158017,
              41.256996397761064
            ],
            [
              -72.42477782050206,
              41.2577663980202
            ],
            [
              -72.42163481949213,
              41.25796439815762
            ],
            [
              -72.41940681877101,
              41.2580103982365
            ],
            [
              -72.41823081838331,
              41.257906398253
            ],
            [
              -72.40032981243124,
              41.255406398324205
            ],
            [
              -72.3850298073789,
              41.2539063985094
            ],
            [
              -72.3745288041216,
              41.25670639938699
            ],
            [
              -72.36456980093637,
              41.25761739987717
            ],
            [
              -72.36352880059208,
              41.25750639988797
            ],
            [
              -72.36112879984533,
              41.25810640008065
            ],
            [
              -72.35870579908013,
              41.25850640023484
            ],
            [
              -72.35348579743997,
              41.25952140059704
            ],
            [
              -72.3461767951273,
              41.26065040104683
            ],
            [
              -72.3433087942164,
              41.26103140121118
            ],
            [
              -72.34213379385389,
              41.26138240131669
            ],
            [
              -72.33955479304444,
              41.26190140149902
            ],
            [
              -72.33796779256274,
              41.262519401669735
            ],
            [
              -72.33561779186321,
              41.26368640197192
            ],
            [
              -72.33380179133472,
              41.264808402248576
            ],
            [
              -72.33290179108454,
              41.265578402427614
            ],
            [
              -72.33149779078117,
              41.26836340301735
            ],
            [
              -72.33147678976748,
              41.25000739941952
            ],
            [
              -72.33145378784326,
              41.2150123925553
            ],
            [
              -72.38351980421133,
              41.20514438899226
            ],
            [
              -72.41502381411252,
              41.1991733868345
            ],
            [
              -72.4599088282155,
              41.1906663837579
            ],
            [
              -72.48671583663632,
              41.18558638191923
            ],
            [
              -72.52790184957105,
              41.177782379092555
            ],
            [
              -72.52790185176838,
              41.21760138690478
            ],
            [
              -72.52790285356694,
              41.25012339327952
            ],
            [
              -72.52732685353756,
              41.25297139385568
            ],
            [
              -72.52631885335731,
              41.25562739440781
            ],
            [
              -72.52107085139583,
              41.250971393661
            ],
            [
              -72.51798285027114,
              41.24876339332565
            ],
            [
              -72.51652684976746,
              41.248203393261804
            ],
            [
              -72.51539084939512,
              41.248139393285044
            ],
            [
              -72.50174284494551,
              41.24780339364901
            ],
            [
              -72.4995348444111,
              41.25110539436557
            ],
            [
              -72.49787584395197,
              41.25254439469975
            ],
            [
              -72.49485084318026,
              41.256352395541086
            ],
            [
              -72.49366684285239,
              41.25737639577899
            ],
            [
              -72.49203484238173,
              41.25844839604039
            ],
            [
              -72.48902684150048,
              41.2601763964736
            ],
            [
              -72.48339483979187,
              41.26235239707712
            ]
          ]
        ]
      }
    },
    {
      "type": "Feature",
      "properties": {
        "STATEFP10": "09",
        "COUNTYFP10": "011",
        "COUSUBFP10": "00000",
        "COUSUBNS10": "00000000",
        "GEOID10": "0901100000",
        "NAME10": "Water_4",
        "NAMELSAD10": "County subdivisions not defined",
        "LSAD10": "00",
        "CLASSFP10": "Z9",
        "MTFCC10": "G4040",
        "CNECTAFP10": null,
        "NECTAFP10": null,
        "NCTADVFP10": null,
        "FUNCSTAT10": "F",
        "ALAND10": 0,
        "AWATER10": 87264467,
        "Town": "Water_4",
        "municipality": "Water_4",
        "POP_Total": 0,
        "VR_R_20": 0,
        "VR_D_20": 0,
        "VOTE_Gov_R_18": 0,
        "VOTE_Gov_D_18": 0,
        "VAP_White_20": 0,
        "VAP_NonWhite_20": 0,
        "unit_type": "water"
      },
      "geometry": {
        "type": "Polygon",
        "coordinates": [
          [
            [
              -72.18452274342667,
              41.27600540909115
            ],
            [
              -72.15422173358499,
              41.276205410069785
            ],
            [
              -72.11805172183169,
              41.2763724112221
            ],
            [
              -72.08911971242922,
              41.27650641214249
            ],
            [
              -72.06861970576668,
              41.276606412794855
            ],
            [
              -72.05511970137529,
              41.276606413211226
            ],
            [
              -72.05005869972982,
              41.27662241337038
            ],
            [
              -72.0817757092674,
              41.26224840957224
            ],
            [
              -72.11567171991666,
              41.255360407173896
            ],
            [
              -72.14153472804058,
              41.25010640534318
            ],
            [
              -72.18486374169922,
              41.24225340246026
            ],
            [
              -72.2260207546697,
              41.23479639971987
            ],
            [
              -72.24955376208457,
              41.23053439815225
            ],
            [
              -72.26593376723741,
              41.22742939703349
            ],
            [
              -72.3150727826923,
              41.218116393675395
            ],
            [
              -72.33145378784326,
              41.2150123925553
            ],
            [
              -72.33147678976748,
              41.25000739941952
            ],
            [
              -72.33149779078117,
              41.26836340301735
            ],
            [
              -72.33171179095372,
              41.27024040337852
            ],
            [
              -72.33215379114509,
              41.27111040353521
            ],
            [
              -72.33352779165175,
              41.272206403707045
            ],
            [
              -72.33064379068499,
              41.271667403691545
            ],
            [
              -72.32835378993204,
              41.271506403731536
            ],
            [
              -72.31135578439786,
              41.27131540422486
            ],
            [
              -72.30584678261006,
              41.27136040440562
            ],
            [
              -72.30232578147375,
              41.271505404543895
            ],
            [
              -72.29664477965514,
              41.27200940481989
            ],
            [
              -72.29270777839777,
              41.27241340502187
            ],
            [
              -72.29032577762865,
              41.272505405114195
            ],
            [
              -72.28222577504584,
              41.27341340554468
            ],
            [
              -72.27052477126425,
              41.27380540598614
            ],
            [
              -72.25982476776998,
              41.27350540626058
            ],
            [
              -72.24952376449276,
              41.27480540683608
            ],
            [
              -72.2495237645529,
              41.275905407051695
            ],
            [
              -72.24852376422785,
              41.275905407082824
            ],
            [
              -72.2033227495336,
              41.275905408488015
            ],
            [
              -72.18452274342667,
              41.27600540909115
            ]
          ]
        ]
      }
    }
  ]
}